NORAD_CAT_ID,OBJECT_NAME,OBJECT_TYPE,EPOCH,MEAN_MOTION,ECCENTRICITY,INCLINATION,RA_OF_ASC_NODE,ARG_OF_PERICENTER,MEAN_ANOMALY,BSTAR,MEAN_MOTION_DOT,MEAN_MOTION_DDOT,TLE_LINE0,TLE_LINE1,TLE_LINE2,SEMIMAJOR_AXIS,PERIOD,APOGEE,PERIGEE,DECAYED
55406.0,STARLINK-5630,PAYLOAD,2023-11-30 03:21:43,14.98331395,0.0002409,70.0003,358.7131,258.0043,102.0846,8.2446e-06,5e-08,0.0,0 STARLINK-5630,1 55406U 23014R   23334.14008721  .00000005  00000-0  82446-5 0  9992,2 55406  70.0003 358.7131 0002409 258.0043 102.0846 14.98331395 46701,6950.189,96.107,573.728,570.379,0.0
55406.0,STARLINK-5630,PAYLOAD,2023-11-30 11:22:24,14.98322878,0.0002024,70.0009,357.8708,279.4496,80.6434,0.00013188,1.481e-05,0.0,0 STARLINK-5630,1 55406U 23014R   23334.47389161  .00001481  00000-0  13188-3 0  9992,2 55406  70.0009 357.8708 0002024 279.4496  80.6434 14.98322878 46754,6950.215,96.107,573.487,570.673,0.0
55406.0,STARLINK-5630,PAYLOAD,2023-12-01 03:23:44,14.98334917,0.0002499,69.9999,356.1871,271.8909,88.1964,-8.6841e-05,-1.129e-05,0.0,0 STARLINK-5630,1 55406U 23014R   23335.14148558 -.00001129  00000-0 -86841-4 0  9998,2 55406  69.9999 356.1871 0002499 271.8909  88.1964 14.98334917 46852,6950.178,96.107,573.78,570.306,0.0
55406.0,STARLINK-5630,PAYLOAD,2023-12-01 11:24:24,14.98336371,0.0002404,70.0005,355.3453,266.5063,93.5821,-8.2178e-05,-1.073e-05,0.0,0 STARLINK-5630,1 55406U 23014R   23335.47528335 -.00001073  00000-0 -82178-4 0  9996,2 55406  70.0005 355.3453 0002404 266.5063  93.5821 14.98336371 47846,6950.173,96.107,573.709,570.367,0.0
55406.0,STARLINK-5630,PAYLOAD,2023-12-02 11:26:25,14.98311239,0.0002176,70.0006,352.8192,285.8979,74.194,0.00039154,4.58e-05,0.0,0 STARLINK-5630,1 55406U 23014R   23336.47668393  .00004580  00000-0  39154-3 0  9995,2 55406  70.0006 352.8192 0002176 285.8979  74.1940 14.98311239 47051,6950.251,96.108,573.628,570.604,0.0
55406.0,STARLINK-5630,PAYLOAD,2023-12-03 03:27:48,14.98302702,0.000269,69.999,351.1369,276.0792,84.006,-0.00027264,-3.342e-05,0.0,0 STARLINK-5630,1 55406U 23014R   23337.14431101 -.00003342  00000-0 -27264-3 0  9991,2 55406  69.9990 351.1369 0002690 276.0792  84.0060 14.98302702 47153,6950.277,96.109,574.012,570.273,0.0
55406.0,STARLINK-5630,PAYLOAD,2023-12-03 11:28:29,14.98294602,0.0002599,70.0,350.2948,280.6271,79.4596,-0.00030377,-3.712e-05,0.0,0 STARLINK-5630,1 55406U 23014R   23337.47812425 -.00003712  00000-0 -30377-3 0  9999,2 55406  70.0000 350.2948 0002599 280.6271  79.4596 14.98294602 47209,6950.302,96.109,573.974,570.361,0.0
55406.0,STARLINK-5630,PAYLOAD,2023-12-04 03:29:48,14.98333631,0.0002227,70.0004,348.6121,264.7963,95.2942,6.2e-06,-1.9e-07,0.0,0 STARLINK-5630,1 55406U 23014R   23338.14569633 -.00000019  00000-0  62000-5 0  9990,2 55406  70.0004 348.6121 0002227 264.7963  95.2942 14.98333631 47304,6950.182,96.107,573.594,570.499,0.0
55406.0,STARLINK-5630,PAYLOAD,2023-12-04 09:54:20,14.98333049,0.0002191,70.0004,347.9389,263.8874,96.2035,1.3443e-05,6.8e-07,0.0,0 STARLINK-5630,1 55406U 23014R   23338.41273688  .00000068  00000-0  13443-4 0  9991,2 55406  70.0004 347.9389 0002191 263.8874  96.2035 14.98333049 48288,6950.183,96.107,573.571,570.526,0.0
55406.0,STARLINK-5630,PAYLOAD,2023-12-05 03:31:48,14.98325418,0.0002226,70.0005,346.0879,269.1231,90.9673,0.00047863,5.622e-05,0.0,0 STARLINK-5630,1 55406U 23014R   23339.14708967  .00005622  00000-0  47863-3 0  9998,2 55406  70.0005 346.0879 0002226 269.1231  90.9673 14.98325418 47456,6950.207,96.107,573.619,570.525,0.0
55406.0,STARLINK-5630,PAYLOAD,2023-12-05 09:56:20,14.98327685,0.000191,70.001,345.4149,257.1165,102.9781,0.0004645,5.453e-05,0.0,0 STARLINK-5630,1 55406U 23014R   23339.41412943  .00005453  00000-0  46450-3 0  9997,2 55406  70.0010 345.4149 0001910 257.1165 102.9781 14.98327685 48438,6950.2,96.107,573.393,570.738,0.0
55406.0,STARLINK-5630,PAYLOAD,2023-12-06 03:33:49,14.9834257,0.0002315,70.0007,343.564,272.1193,87.9701,2.8607e-05,2.49e-06,0.0,0 STARLINK-5630,1 55406U 23014R   23340.14848770  .00000249  00000-0  28607-4 0  9993,2 55406  70.0007 343.5640 0002315 272.1193  87.9701 14.98342570 47609,6950.154,96.106,573.628,570.41,0.0
55406.0,STARLINK-5630,PAYLOAD,2023-12-06 09:58:21,14.98337442,0.0002205,70.0007,342.8901,272.2233,87.8673,-3.5943e-05,-5.22e-06,0.0,0 STARLINK-5630,1 55406U 23014R   23340.41553046 -.00000522  00000-0 -35943-4 0  9999,2 55406  70.0007 342.8901 0002205 272.2233  87.8673 14.98337442 48582,6950.17,96.107,573.567,570.502,0.0
55406.0,STARLINK-5630,PAYLOAD,2023-12-07 10:00:22,14.98337494,0.0002087,70.0007,340.3647,265.8502,94.2419,-0.00015465,-1.938e-05,0.0,0 STARLINK-5630,1 55406U 23014R   23341.41692495 -.00001938  00000-0 -15465-3 0  9990,2 55406  70.0007 340.3647 0002087 265.8502  94.2419 14.98337494 47796,6950.17,96.107,573.485,570.584,0.0
55406.0,STARLINK-5630,PAYLOAD,2023-12-08 10:02:23,14.98328158,0.0002076,70.0004,337.8394,259.7659,100.3266,-5.7913e-05,-7.84e-06,0.0,0 STARLINK-5630,1 55406U 23014R   23342.41832353 -.00000784  00000-0 -57913-4 0  9993,2 55406  70.0004 337.8394 0002076 259.7659 100.3266 14.98328158 47949,6950.199,96.107,573.506,570.621,0.0
55406.0,STARLINK-5630,PAYLOAD,2023-12-09 10:04:24,14.98317581,0.0001974,70.0015,335.3168,284.3102,75.7838,-7.5632e-05,-9.95e-06,0.0,0 STARLINK-5630,1 55406U 23014R   23343.41973259 -.00000995  00000-0 -75632-4 0  9997,2 55406  70.0015 335.3168 0001974 284.3102  75.7838 14.98317581 48091,6950.231,96.108,573.468,570.724,0.0
55406.0,STARLINK-5630,PAYLOAD,2023-12-09 22:53:28,14.98326735,0.0002615,70.001,333.9692,269.3511,90.7348,3.6023e-05,3.37e-06,0.0,0 STARLINK-5630,1 55406U 23014R   23343.95380060  .00000337  00000-0  36023-4 0  9997,2 55406  70.0010 333.9692 0002615 269.3511  90.7348 14.98326735 49110,6950.203,96.107,573.885,570.251,0.0
55406.0,STARLINK-5630,PAYLOAD,2023-12-11 03:43:53,14.98316863,0.0002295,70.0009,330.9384,252.3388,107.7521,0.00016256,1.847e-05,0.0,0 STARLINK-5630,1 55406U 23014R   23345.15548074  .00001847  00000-0  16256-3 0  9994,2 55406  70.0009 330.9384 0002295 252.3388 107.7521 14.98316863 48359,6950.234,96.108,573.694,570.503,0.0
55406.0,STARLINK-5630,PAYLOAD,2023-12-11 08:32:17,14.98334526,0.0002877,69.9988,330.4312,269.3528,90.7302,-5.2449e-05,-7.19e-06,0.0,0 STARLINK-5630,1 55406U 23014R   23345.35575642 -.00000719  00000-0 -52449-4 0  9991,2 55406  69.9988 330.4312 0002877 269.3528  90.7302 14.98334526 48385,6950.179,96.107,574.043,570.044,0.0
55406.0,STARLINK-5630,PAYLOAD,2023-12-12 08:34:18,14.98328295,0.0002483,69.9995,327.9071,262.3256,97.7621,-3.0342e-05,-4.55e-06,0.0,0 STARLINK-5630,1 55406U 23014R   23346.35715982 -.00000455  00000-0 -30342-4 0  9990,2 55406  69.9995 327.9071 0002483 262.3256  97.7621 14.98328295 48534,6950.198,96.107,573.789,570.337,0.0
55406.0,STARLINK-5630,PAYLOAD,2023-12-13 08:36:19,14.98331543,0.0002518,69.9994,325.3819,263.7762,96.311,2.8993e-05,2.53e-06,0.0,0 STARLINK-5630,1 55406U 23014R   23347.35855557  .00000253  00000-0  28993-4 0  9997,2 55406  69.9994 325.3819 0002518 263.7762  96.3110 14.98331543 48685,6950.188,96.107,573.803,570.303,0.0
55406.0,STARLINK-5630,PAYLOAD,2023-12-14 08:38:23,14.98296515,0.0002659,69.9995,322.8564,271.1714,88.914,-0.00032521,-3.968e-05,0.0,0 STARLINK-5630,1 55406U 23014R   23348.35998908 -.00003968  00000-0 -32521-3 0  9995,2 55406  69.9995 322.8564 0002659 271.1714  88.9140 14.98296515 48837,6950.296,96.109,574.01,570.313,0.0
55406.0,STARLINK-5630,PAYLOAD,2023-12-15 03:51:58,14.98320346,0.0002502,70.0001,320.8361,276.2513,83.8361,-7.571e-05,-9.96e-06,0.0,0 STARLINK-5630,1 55406U 23014R   23349.16109514 -.00000996  00000-0 -75710-4 0  9998,2 55406  70.0001 320.8361 0002502 276.2513  83.8361 14.98320346 48953,6950.223,96.108,573.827,570.349,0.0
55406.0,STARLINK-5630,PAYLOAD,2023-12-15 08:40:22,14.98323601,0.0002311,70.0002,320.3314,270.0458,90.0436,-3.7526e-05,-5.41e-06,0.0,0 STARLINK-5630,1 55406U 23014R   23349.36137275 -.00000541  00000-0 -37526-4 0  9994,2 55406  70.0002 320.3314 0002311 270.0458  90.0436 14.98323601 49923,6950.213,96.107,573.684,570.471,0.0
55406.0,STARLINK-5630,PAYLOAD,2023-12-15 23:05:34,14.98331927,0.000295,69.9984,318.8131,273.3769,86.7052,7.8916e-05,8.49e-06,0.0,0 STARLINK-5630,1 55406U 23014R   23349.96220308  .00000849  00000-0  78916-4 0  9997,2 55406  69.9984 318.8131 0002950 273.3769  86.7052 14.98331927 50016,6950.187,96.107,574.102,570.002,0.0
55406.0,STARLINK-5630,PAYLOAD,2023-12-16 02:17:50,14.98333481,0.0002877,69.9985,318.4776,278.5863,81.497,9.4921e-05,1.04e-05,0.0,0 STARLINK-5630,1 55406U 23014R   23350.09572228  .00001040  00000-0  94921-4 0  9992,2 55406  69.9985 318.4776 0002877 278.5863  81.4970 14.98333481 49092,6950.182,96.107,574.047,570.048,0.0
55406.0,STARLINK-5630,PAYLOAD,2023-12-16 07:06:14,14.98338961,0.0002639,69.9993,317.974,274.0392,86.0465,0.00014476,1.635e-05,0.0,0 STARLINK-5630,1 55406U 23014R   23350.29599681  .00001635  00000-0  14476-3 0  9992,2 55406  69.9993 317.9740 0002639 274.0392  86.0465 14.98338961 49122,6950.165,96.106,573.864,570.196,0.0
55406.0,STARLINK-5630,PAYLOAD,2023-12-17 02:19:51,14.98336493,0.0002362,70.0004,315.9568,254.4581,105.6317,9.3821e-05,1.027e-05,0.0,0 STARLINK-5630,1 55406U 23014R   23351.09711829  .00001027  00000-0  93821-4 0  9998,2 55406  70.0004 315.9568 0002362 254.4581 105.6317 14.98336493 49244,6950.173,96.107,573.679,570.396,0.0
55406.0,STARLINK-5630,PAYLOAD,2023-12-17 07:08:15,14.98337271,0.0002498,69.9993,315.4495,265.9696,94.1178,7.8922e-05,8.49e-06,0.0,0 STARLINK-5630,1 55406U 23014R   23351.29739768  .00000849  00000-0  78922-4 0  9998,2 55406  69.9993 315.4495 0002498 265.9696  94.1178 14.98337271 50217,6950.17,96.107,573.772,570.299,0.0
55406.0,STARLINK-5630,PAYLOAD,2023-12-18 03:57:59,14.98341232,0.0002401,70.0003,313.2635,252.7478,107.3418,-5.0076e-05,-6.91e-06,0.0,0 STARLINK-5630,1 55406U 23014R   23352.16527269 -.00000691  00000-0 -50076-4 0  9993,2 55406  70.0003 313.2635 0002401 252.7478 107.3418 14.98341232 49405,6950.158,96.106,573.692,570.354,0.0
